QB50P1                  
1 40025U 14033R   26138.94887521  .00005296  00000+0  26586-3 0  9997
2 40025  98.0973 148.0560 0007740 337.2109  22.8778 15.17763555648597
DTUSAT-2                
1 40030U 14033W   26139.23928390  .00003948  00000+0  21779-3 0  9997
2 40030  98.0868 135.1394 0007232 347.5852  12.5198 15.14600937648305
QB50P2                  
1 40032U 14033Y   26138.70778129  .00004027  00000+0  22122-3 0  9995
2 40032  98.0753 133.7642 0005644 277.6790  82.3799 15.14744084648202
PERSEUS-M1              
1 40039U 14033AF  26139.06633964  .00001354  00000+0  12754-3 0  9999
2 40039  97.9635  82.7255 0012687  40.5346 319.6817 14.95525405646283
POLYITAN-1              
1 40042U 14033AJ  26138.80415234  .00011817  00000+0  38317-3 0  9990
2 40042  98.0962 162.3101 0005696 240.0236 120.0439 15.32154281649092
TIGRISAT                
1 40043U 14033AK  26138.40243643  .00001375  00000+0  16395-3 0  9990
2 40043  97.7798 289.1062 0049725 170.8027 189.4111 14.85021879641203
CANX-4                  
1 40055U 14034C   26139.17212697  .00000541  00000+0  76736-4 0  9994
2 40055  98.3158  13.4156 0014103 103.0014 257.2773 14.81204639640234
CANX-5                  
1 40056U 14034D   26139.10334248  .00000584  00000+0  82201-4 0  9996
2 40056  98.3161  13.3861 0014090 103.3863 256.8920 14.81221868631031
GONETS-M 10             
1 40063U 14036C   26139.17329380 -.00000018  00000+0 -20108-3 0  9995
2 40063  82.5097 325.7014 0021424 203.3051 156.7059 12.42944713538641
METEOR-M 2              
1 40069U 14037A   26139.21519907  .00000123  00000+0  75444-4 0  9992
2 40069  98.5100 115.9832 0006831 114.7907 245.3982 14.21452671615200
DX1                     
1 40071U 14037C   26139.21501781  .00000465  00000+0  54927-4 0  9998
2 40071  98.3855  99.1650 0007636  17.6173 342.5307 14.89882238641793
UKUBE-1                 
1 40074U 14037F   26138.94234480  .00005679  00000+0  32578-3 0  9998
2 40074  98.4241 139.1552 0000398 132.8085 227.3177 15.13034237644134
GAOFEN-2                
1 40118U 14049A   26139.18951573 -.00000071  00000+0 -22443-5 0  9991
2 40118  98.0121 203.4220 0006687 338.3243  21.7685 14.80863312634944
BRITE-PL2 (HEWELIUSZ)   
1 40119U 14049B   26139.04828955  .00001446  00000+0  13932-3 0  9990
2 40119  97.9066 250.8315 0013633 200.8084 159.2583 14.94470735637098
CBERS 4                 
1 40336U 14079A   26139.18051899 -.00000088  00000+0 -15913-4 0  9999
2 40336  98.3546 196.9189 0002109  98.5541 261.5884 14.35499801599797
SMAP                    
1 40376U 15003A   26139.15654794  .00000229  00000+0  53270-4 0  9994
2 40376  98.1283 146.6624 0001225  70.6944 289.4390 14.63410396603373
GONETS-M 11             
1 40552U 15020A   26139.19021463  .00000014  00000+0  31511-4 0  9990
2 40552  82.4890  49.0582 0017405  65.7484 294.5411 12.42875695505137
GONETS-M 12             
1 40553U 15020B   26139.16403527  .00000093  00000+0  59881-3 0  9999
2 40553  82.4924  50.1907 0016350  51.5705 308.6839 12.42890255505126
GONETS-M 13             
1 40554U 15020C   26139.13702630  .00000029  00000+0  13929-3 0  9996
2 40554  82.4887  48.8311 0014807  37.7349 322.4766 12.42868875505095
DMC3-FM1                
1 40715U 15032A   26139.17798595  .00000627  00000+0  78145-4 0  9993
2 40715  97.6494   5.4857 0006397 136.4366 223.7356 14.85702132585606
DMC3-FM2                
1 40716U 15032B   26139.20013818  .00001087  00000+0  13117-3 0  9994
2 40716  97.6550   7.0610 0006796 141.5007 218.6695 14.85709834585602
DMC3-FM3                
1 40717U 15032C   26139.22326815  .00000081  00000+0  15319-4 0  9991
2 40717  97.6603   8.8177 0005901 139.4438 220.7218 14.85696712585616
CARBONITE 1 (CBNT-1)    
1 40718U 15032D   26139.17996681  .00000931  00000+0  11915-3 0  9991
2 40718  97.6493 318.4653 0015360  34.9461 325.2758 14.83487415585041
LILACSAT-2              
1 40908U 15049K   26139.04472953  .00011851  00000+0  21000-3 0  9996
2 40908  97.4675 174.7965 0006939  17.2566 342.8920 15.50402805591232
COSMOS 2507 (RODNIK-S *)
1 40920U 15050A   26139.17373347 -.00000113  00000+0 -88850-3 0  9990
2 40920  82.4902  97.7329 0011100  55.7014 304.5115 12.42925376483256
COSMOS 2508 (RODNIK-S *)
1 40921U 15050B   26139.12845838 -.00000126  00000+0 -97986-3 0  9999
2 40921  82.4855  96.2771 0015523  85.8880 274.3974 12.42912526483235
COSMOS 2509 (RODNIK-S *)
1 40922U 15050C   26139.14807488 -.00000109  00000+0 -86155-3 0  9998
2 40922  82.4863  96.3642 0015732 101.8350 258.4495 12.42882234483273
