OBJECT_NAME,OBJECT_ID,EPOCH,MEAN_MOTION,ECCENTRICITY,INCLINATION,RA_OF_ASC_NODE,ARG_OF_PERICENTER,MEAN_ANOMALY,EPHEMERIS_TYPE,CLASSIFICATION_TYPE,NORAD_CAT_ID,ELEMENT_SET_NO,REV_AT_EPOCH,BSTAR,MEAN_MOTION_DOT,MEAN_MOTION_DDOT
QB50P1,2014-033R,2026-05-18T22:46:22.818144,15.17763555,.000774,98.0973,148.0560,337.2109,22.8778,0,U,40025,999,64859,.26586E-3,.5296E-4,0
DTUSAT-2,2014-033W,2026-05-19T05:44:34.128960,15.14600937,.0007232,98.0868,135.1394,347.5852,12.5198,0,U,40030,999,64830,.21779E-3,.3948E-4,0
QB50P2,2014-033Y,2026-05-18T16:59:12.303456,15.14744084,.00056445,98.0753,133.7642,277.6790,82.3799,0,U,40032,999,64820,.22121616E-3,.4027E-4,0
PERSEUS-M1,2014-033AF,2026-05-19T01:35:31.744896,14.95525405,.0012687,97.9635,82.7255,40.5346,319.6817,0,U,40039,999,64628,.12754E-3,.1354E-4,0
POLYITAN-1,2014-033AJ,2026-05-18T19:17:58.762176,15.32154281,.00056968,98.0962,162.3101,240.0236,120.0439,0,U,40042,999,64909,.38316913E-3,.11817E-3,0
TIGRISAT,2014-033AK,2026-05-18T09:39:30.507552,14.85021879,.00497258,97.7798,289.1062,170.8027,189.4111,0,U,40043,999,64120,.1639485E-3,.1375E-4,0
CANX-4,2014-034C,2026-05-19T04:07:51.770208,14.81204639,.0014103,98.3158,13.4156,103.0014,257.2773,0,U,40055,999,64023,.76736E-4,.541E-5,0
CANX-5,2014-034D,2026-05-19T02:28:48.790272,14.81221868,.001409,98.3161,13.3861,103.3863,256.8920,0,U,40056,999,63103,.82201E-4,.584E-5,0
GONETS-M 10,2014-036C,2026-05-19T04:09:32.584320,12.42944713,.0021424,82.5097,325.7014,203.3051,156.7059,0,U,40063,999,53864,-.20108E-3,-.18E-6,0
METEOR-M 2,2014-037A,2026-05-19T05:09:53.199648,14.21452671,.0006831,98.5100,115.9832,114.7907,245.3982,0,U,40069,999,61520,.75444E-4,.123E-5,0
DX1,2014-037C,2026-05-19T05:09:37.538784,14.89882238,.0007636,98.3855,99.1650,17.6173,342.5307,0,U,40071,999,64179,.54927E-4,.465E-5,0
UKUBE-1,2014-037F,2026-05-18T22:36:58.590720,15.13034237,.0000398,98.4241,139.1552,132.8085,227.3177,0,U,40074,999,64413,.32578E-3,.5679E-4,0
GAOFEN-2,2014-049A,2026-05-19T04:32:54.159072,14.80863312,.0006687,98.0121,203.4220,338.3243,21.7685,0,U,40118,999,63494,-.22443E-5,-.71E-6,0
BRITE-PL2 (HEWELIUSZ),2014-049B,2026-05-19T01:09:32.217120,14.94470735,.0013633,97.9066,250.8315,200.8084,159.2583,0,U,40119,999,63709,.13932E-3,.1446E-4,0
CBERS 4,2014-079A,2026-05-19T04:19:56.840736,14.35499801,.0002109,98.3546,196.9189,98.5541,261.5884,0,U,40336,999,59979,-.15913E-4,-.88E-6,0
SMAP,2015-003A,2026-05-19T03:45:25.742016,14.63410396,.0001225,98.1283,146.6624,70.6944,289.4390,0,U,40376,999,60337,.5327E-4,.229E-5,0
GONETS-M 11,2015-020A,2026-05-19T04:33:54.544032,12.42875695,.0017405,82.4890,49.0582,65.7484,294.5411,0,U,40552,999,50513,.31511E-4,.14E-6,0
GONETS-M 12,2015-020B,2026-05-19T03:56:12.647328,12.42890255,.001635,82.4924,50.1907,51.5705,308.6839,0,U,40553,999,50512,.59881E-3,.93E-6,0
GONETS-M 13,2015-020C,2026-05-19T03:17:19.072320,12.42868875,.0014807,82.4887,48.8311,37.7349,322.4766,0,U,40554,999,50509,.13929E-3,.29E-6,0
DMC3-FM1,2015-032A,2026-05-19T04:16:17.986080,14.85702132,.0006397,97.6494,5.4857,136.4366,223.7356,0,U,40715,999,58560,.78145E-4,.627E-5,0
DMC3-FM2,2015-032B,2026-05-19T04:48:11.938752,14.85709834,.0006796,97.6550,7.0610,141.5007,218.6695,0,U,40716,999,58560,.13117E-3,.1087E-4,0
DMC3-FM3,2015-032C,2026-05-19T05:21:30.368160,14.85696712,.0005901,97.6603,8.8177,139.4438,220.7218,0,U,40717,999,58561,.15319E-4,.81E-6,0
CARBONITE 1 (CBNT-1),2015-032D,2026-05-19T04:19:09.132384,14.83487415,.001536,97.6493,318.4653,34.9461,325.2758,0,U,40718,999,58504,.11915E-3,.931E-5,0
LILACSAT-2,2015-049K,2026-05-19T01:04:24.631392,15.50402805,.0006939,97.4675,174.7965,17.2566,342.8920,0,U,40908,999,59123,.21E-3,.11851E-3,0
COSMOS 2507 (RODNIK-S 13),2015-050A,2026-05-19T04:10:10.571808,12.42925376,.00111,82.4902,97.7329,55.7014,304.5115,0,U,40920,999,48325,-.8885E-3,-.113E-5,0
COSMOS 2508 (RODNIK-S 14),2015-050B,2026-05-19T03:04:58.804032,12.42912526,.0015523,82.4855,96.2771,85.8880,274.3974,0,U,40921,999,48323,-.97986E-3,-.126E-5,0
COSMOS 2509 (RODNIK-S 15),2015-050C,2026-05-19T03:33:13.669632,12.42882234,.0015732,82.4863,96.3642,101.8350,258.4495,0,U,40922,999,48327,-.86155E-3,-.109E-5,0
